IRIDIUM 65 [+]          
1 25288U 98021D   16059.45789452  .00000000  00000-0 -68882-5 0  9998
2 25288  86.3922  62.3207 0002332  87.0508 273.0954 14.34215756936977
IRIDIUM 66 [+]          
1 25289U 98021E   16059.49584060  .00000012  00000-0 -28440-5 0  9990
2 25289  86.3925  62.2120 0002316  91.6326  71.5720 14.34215541936979
IRIDIUM 67 [+]          
1 25290U 98021F   16059.47057939  .00000013  00000-0 -23942-5 0  9993
2 25290  86.3926  62.3519 0002275  90.4915 269.6541 14.34215991936981
IRIDIUM 68 [+]          
1 25291U 98021G   16059.54669271 -.00000075  00000-0 -33807-4 0  9999
2 25291  86.3925  62.4300 0002177  89.0674 271.0771 14.34215540936967
IRIDIUM 69 [-]          
1 25319U 98026A   16059.53757511  .00000193  00000-0  56776-4 0  9998
2 25319  86.3953  85.4140 0003709  65.4119 294.7465 14.38558171934795
IRIDIUM 71 [-]          
1 25320U 98026B   16059.52550588  .00000147  00000-0  41314-4 0  9995
2 25320  86.3933  81.5360 0004233  96.9910 263.1770 14.38982815935209
IRIDIUM 70 [+]          
1 25342U 98032A   16059.52404706  .00000012  00000-0 -28915-5 0  9991
2 25342  86.3931  62.6588 0002360  92.6539  19.7469 14.34215911931064
IRIDIUM 72 [+]          
1 25343U 98032B   16059.58304346  .00000011  00000-0 -30945-5 0  9992
2 25343  86.3926  62.2767 0002300  90.4754  31.7890 14.34215735931070
IRIDIUM 73 [-]          
1 25344U 98032C   16059.50446702  .00000245  00000-0  59400-4 0  9992
2 25344  86.4411  43.5278 0001960 106.0525 254.0895 14.48899537938818
IRIDIUM 74 [S]          
1 25345U 98032D   16059.55072633  .00000016  00000-0 -12207-5 0  9998
2 25345  86.4437  62.6219 0002298  85.4192  30.5262 14.42953639934302
IRIDIUM 75 [+]          
1 25346U 98032E   16059.51765964  .00000011  00000-0 -29983-5 0  9995
2 25346  86.3930  62.5399 0002266  90.6406  21.5227 14.34215764931634
IRIDIUM 3 [+]           
1 25431U 98048A   16059.57976193  .00000010  00000-0 -33871-5 0  9991
2 25431  86.3932  94.1346 0002309  91.6522  61.0928 14.34213179917585
IRIDIUM 76 [+]          
1 25432U 98048B   16059.53129465  .00000012  00000-0 -27165-5 0  9991
2 25432  86.3930  93.9244 0002144  93.9806  70.7800 14.34218821917568
IRIDIUM 82 [+]          
1 25467U 98051A   16059.46871730 -.00000074  00000-0 -33349-4 0  9993
2 25467  86.3965 220.5194 0002119  82.8334 277.3102 14.34214568918577
IRIDIUM 81 [+]          
1 25468U 98051B   16059.53212304  .00000135  00000-0  41206-4 0  9995
2 25468  86.3961 220.1364 0001964  91.0505 269.0915 14.34216066914805
IRIDIUM 80 [+]          
1 25469U 98051C   16059.52545086 -.00000010  00000-0 -10588-4 0  9994
2 25469  86.3964 220.4044 0001776  89.4702 334.4084 14.34214909914806
IRIDIUM 77 [+]          
1 25471U 98051E   16059.53183084  .00000004  00000-0 -56827-5 0  9993
2 25471  86.3955 220.0188 0002000  93.5220 330.5505 14.34214709920008
IRIDIUM 2 [-]           
1 25527U 98066A   16059.51495073  .00003294  00000-0  17575-3 0  9991
2 25527  85.5319 312.0530 0011433  43.5969 316.6171 15.14713272945978
IRIDIUM 86 [+]          
1 25528U 98066B   16059.40816644  .00000229  00000-0  74666-4 0  9991
2 25528  86.3999 188.2760 0002316  99.3690 260.7768 14.34216006911316
IRIDIUM 84 [+]          
1 25530U 98066D   16059.57941836  .00000239  00000-0  78260-4 0  9999
2 25530  86.4001 188.3612 0002028  97.4105 262.7321 14.34216251908978
IRIDIUM 83 [+]          
1 25531U 98066E   16059.47159331  .00000233  00000-0  76288-4 0  9992
2 25531  86.4004 188.5122 0002039  97.2599 262.8828 14.34216662906312
IRIDIUM 20 [+]          
1 25577U 98074A   16059.53110589  .00000011  00000-0 -30360-5 0  9997
2 25577  86.3928  93.8525 0002310  93.6769 266.4691 14.34220394900401
IRIDIUM 11 [+]          
1 25578U 98074B   16059.57530926  .00000010  00000-0 -33706-5 0  9999
2 25578  86.3927  94.0404 0002329  91.2158  71.4914 14.34217066909375
IRIDIUM 14 [S]          
1 25777U 99032A   16059.53672534  .00000008  00000-0 -43206-5 0  9996
2 25777  86.3924  62.3695 0002327  88.2051  24.1783 14.34216748886648
IRIDIUM 21 [+]          
1 25778U 99032B   16059.55303326  .00000002  00000-0 -63288-5 0  9995
2 25778  86.3924  62.3872 0002050  88.3641 271.7790 14.34215906880080
IRIDIUM 91 [+]          
1 27372U 02005A   16059.25456757  .00000208  00000-0  67330-4 0  9993
2 27372  86.3988 126.3542 0002206  89.2360 331.7570 14.34218543743551
IRIDIUM 90 [S]          
1 27373U 02005B   16059.51377650  .00000276  00000-0  76548-4 0  9993
2 27373  86.4514 188.4599 0002301 105.2113 254.9343 14.42958140742905
IRIDIUM 94 [S]          
1 27374U 02005C   16059.59573591  .00000087  00000-0  24066-4 0  9992
2 27374  86.3927  94.1523 0002670 116.5994  53.4013 14.34221843747921
IRIDIUM 95 [+]          
1 27375U 02005D   16059.55990201  .00000152  00000-0  47279-4 0  9994
2 27375  86.3988 126.0098 0002237 100.5740 259.5707 14.34214512742886
IRIDIUM 96 [S]          
1 27376U 02005E   16059.32865325  .00000276  00000-0  91418-4 0  9999
2 27376  86.4043 157.5665 0001207 140.8315 219.2968 14.34217372748054
IRIDIUM 97 [+]          
1 27450U 02031A   16059.36671295  .00000255  00000-0  83873-4 0  9999
2 27450  86.4011 157.4017 0002091  93.0882 267.0553 14.34217366722171
IRIDIUM 98 [S]          
1 27451U 02031B   16059.50575176  .00000009  00000-0 -37622-5 0  9997
2 27451  86.3954 220.6005 0001830  86.5434 333.8780 14.34214898723269
